[{"OBJECT_NAME":"ONEWEB-0080","OBJECT_ID":"2020-020C","EPOCH":"2026-03-09T22:20:57.148800","MEAN_MOTION":13.11412701,"ECCENTRICITY":0.0002137,"INCLINATION":87.8863,"RA_OF_ASC_NODE":40.7981,"ARG_OF_PERICENTER":88.8299,"MEAN_ANOMALY":271.3074,"EPHEMERIS_TYPE":0,"CLASSIFICATION_TYPE":"U","NORAD_CAT_ID":45426,"ELEMENT_SET_NO":999,"REV_AT_EPOCH":28969,"BSTAR":-0.00089608248,"MEAN_MOTION_DOT":-3.05e-6,"MEAN_MOTION_DDOT":0},{"OBJECT_NAME":"FENGYUN 1C DEB","OBJECT_ID":"1999-025EGH","EPOCH":"2026-03-07T12:00:45.232992","MEAN_MOTION":13.52144667,"ECCENTRICITY":0.02833091,"INCLINATION":98.9783,"RA_OF_ASC_NODE":171.4219,"ARG_OF_PERICENTER":326.1213,"MEAN_ANOMALY":32.2107,"EPHEMERIS_TYPE":0,"CLASSIFICATION_TYPE":"U","NORAD_CAT_ID":37415,"ELEMENT_SET_NO":999,"REV_AT_EPOCH":63467,"BSTAR":0.00045584814,"MEAN_MOTION_DOT":3.46e-6,"MEAN_MOTION_DDOT":0}]
